CCSDS_OMM_VERS = 2.0
CREATION_DATE  = 
ORIGINATOR     = 

OBJECT_NAME    = STARLINK-35828
OBJECT_ID      = 2025-254D
CENTER_NAME    = EARTH
REF_FRAME      = TEME
TIME_SYSTEM    = UTC
MEAN_ELEMENT_THEORY = SGP/SGP4

EPOCH          = 2025-12-02T20:00:03.000384
MEAN_MOTION    = 15.66011982
ECCENTRICITY   = .0001219
INCLINATION    = 53.1594
RA_OF_ASC_NODE = 324.1839
ARG_OF_PERICENTER = 105.4464
MEAN_ANOMALY   = 150.4410

EPHEMERIS_TYPE = 0
CLASSIFICATION_TYPE = U
NORAD_CAT_ID   = 66351
ELEMENT_SET_NO = 999
REV_AT_EPOCH   = 530
BSTAR          = -.21936E-1
MEAN_MOTION_DOT = -.2010427E-1
MEAN_MOTION_DDOT = 0

CCSDS_OMM_VERS = 2.0
CREATION_DATE  = 
ORIGINATOR     = 

OBJECT_NAME    = STARLINK-35850
OBJECT_ID      = 2025-254E
CENTER_NAME    = EARTH
REF_FRAME      = TEME
TIME_SYSTEM    = UTC
MEAN_ELEMENT_THEORY = SGP/SGP4

EPOCH          = 2025-12-02T20:00:03.000384
MEAN_MOTION    = 15.66016062
ECCENTRICITY   = .0001257
INCLINATION    = 53.1593
RA_OF_ASC_NODE = 324.1795
ARG_OF_PERICENTER = 105.6647
MEAN_ANOMALY   = 152.1366

EPHEMERIS_TYPE = 0
CLASSIFICATION_TYPE = U
NORAD_CAT_ID   = 66352
ELEMENT_SET_NO = 999
REV_AT_EPOCH   = 528
BSTAR          = -.21983E-1
MEAN_MOTION_DOT = -.2014529E-1
MEAN_MOTION_DDOT = 0

CCSDS_OMM_VERS = 2.0
CREATION_DATE  = 
ORIGINATOR     = 

OBJECT_NAME    = STARLINK-35869
OBJECT_ID      = 2025-254F
CENTER_NAME    = EARTH
REF_FRAME      = TEME
TIME_SYSTEM    = UTC
MEAN_ELEMENT_THEORY = SGP/SGP4

EPOCH          = 2025-12-02T20:00:03.000384
MEAN_MOTION    = 15.66008153
ECCENTRICITY   = .0001204
INCLINATION    = 53.1591
RA_OF_ASC_NODE = 324.1753
ARG_OF_PERICENTER = 100.7063
MEAN_ANOMALY   = 159.0137

EPHEMERIS_TYPE = 0
CLASSIFICATION_TYPE = U
NORAD_CAT_ID   = 66353
ELEMENT_SET_NO = 999
REV_AT_EPOCH   = 533
BSTAR          = -.21844E-1
MEAN_MOTION_DOT = -.2002766E-1
MEAN_MOTION_DDOT = 0

CCSDS_OMM_VERS = 2.0
CREATION_DATE  = 
ORIGINATOR     = 

OBJECT_NAME    = STARLINK-35895
OBJECT_ID      = 2025-254G
CENTER_NAME    = EARTH
REF_FRAME      = TEME
TIME_SYSTEM    = UTC
MEAN_ELEMENT_THEORY = SGP/SGP4

EPOCH          = 2025-12-02T20:00:03.000384
MEAN_MOTION    = 15.52299062
ECCENTRICITY   = .0001804
INCLINATION    = 53.1586
RA_OF_ASC_NODE = 324.4476
ARG_OF_PERICENTER = 94.6139
MEAN_ANOMALY   = 30.5137

EPHEMERIS_TYPE = 0
CLASSIFICATION_TYPE = U
NORAD_CAT_ID   = 66354
ELEMENT_SET_NO = 999
REV_AT_EPOCH   = 533
BSTAR          = -.53394E-1
MEAN_MOTION_DOT = -.2875455E-1
MEAN_MOTION_DDOT = 0

CCSDS_OMM_VERS = 2.0
CREATION_DATE  = 
ORIGINATOR     = 

OBJECT_NAME    = STARLINK-35861
OBJECT_ID      = 2025-254H
CENTER_NAME    = EARTH
REF_FRAME      = TEME
TIME_SYSTEM    = UTC
MEAN_ELEMENT_THEORY = SGP/SGP4

EPOCH          = 2025-12-02T20:00:03.000384
MEAN_MOTION    = 15.66010487
ECCENTRICITY   = .0001213
INCLINATION    = 53.1593
RA_OF_ASC_NODE = 324.1671
ARG_OF_PERICENTER = 103.7686
MEAN_ANOMALY   = 159.7838

EPHEMERIS_TYPE = 0
CLASSIFICATION_TYPE = U
NORAD_CAT_ID   = 66355
ELEMENT_SET_NO = 999
REV_AT_EPOCH   = 533
BSTAR          = -.21877E-1
MEAN_MOTION_DOT = -.2005562E-1
MEAN_MOTION_DDOT = 0

CCSDS_OMM_VERS = 2.0
CREATION_DATE  = 
ORIGINATOR     = 

OBJECT_NAME    = STARLINK-35851
OBJECT_ID      = 2025-254J
CENTER_NAME    = EARTH
REF_FRAME      = TEME
TIME_SYSTEM    = UTC
MEAN_ELEMENT_THEORY = SGP/SGP4

EPOCH          = 2025-12-02T20:00:03.000384
MEAN_MOTION    = 15.66012853
ECCENTRICITY   = .0001221
INCLINATION    = 53.1594
RA_OF_ASC_NODE = 324.1625
ARG_OF_PERICENTER = 103.8466
MEAN_ANOMALY   = 161.6224

EPHEMERIS_TYPE = 0
CLASSIFICATION_TYPE = U
NORAD_CAT_ID   = 66356
ELEMENT_SET_NO = 999
REV_AT_EPOCH   = 533
BSTAR          = -.21924E-1
MEAN_MOTION_DOT = -.2009572E-1
MEAN_MOTION_DDOT = 0

CCSDS_OMM_VERS = 2.0
CREATION_DATE  = 
ORIGINATOR     = 

OBJECT_NAME    = STARLINK-35817
OBJECT_ID      = 2025-254K
CENTER_NAME    = EARTH
REF_FRAME      = TEME
TIME_SYSTEM    = UTC
MEAN_ELEMENT_THEORY = SGP/SGP4

EPOCH          = 2025-12-02T20:00:03.000384
MEAN_MOTION    = 15.66012726
ECCENTRICITY   = .0001085
INCLINATION    = 53.1594
RA_OF_ASC_NODE = 324.1585
ARG_OF_PERICENTER = 107.5689
MEAN_ANOMALY   = 159.8167

EPHEMERIS_TYPE = 0
CLASSIFICATION_TYPE = U
NORAD_CAT_ID   = 66357
ELEMENT_SET_NO = 999
REV_AT_EPOCH   = 533
BSTAR          = -.21907E-1
MEAN_MOTION_DOT = -.2008044E-1
MEAN_MOTION_DDOT = 0

CCSDS_OMM_VERS = 2.0
CREATION_DATE  = 
ORIGINATOR     = 

OBJECT_NAME    = STARLINK-35807
OBJECT_ID      = 2025-254L
CENTER_NAME    = EARTH
REF_FRAME      = TEME
TIME_SYSTEM    = UTC
MEAN_ELEMENT_THEORY = SGP/SGP4

EPOCH          = 2025-12-02T20:00:03.000384
MEAN_MOTION    = 15.66018388
ECCENTRICITY   = .0001134
INCLINATION    = 53.1595
RA_OF_ASC_NODE = 324.1542
ARG_OF_PERICENTER = 111.8958
MEAN_ANOMALY   = 157.4037

EPHEMERIS_TYPE = 0
CLASSIFICATION_TYPE = U
NORAD_CAT_ID   = 66358
ELEMENT_SET_NO = 999
REV_AT_EPOCH   = 533
BSTAR          = -.21989E-1
MEAN_MOTION_DOT = -.2015138E-1
MEAN_MOTION_DDOT = 0

CCSDS_OMM_VERS = 2.0
CREATION_DATE  = 
ORIGINATOR     = 

OBJECT_NAME    = STARLINK-35805
OBJECT_ID      = 2025-254M
CENTER_NAME    = EARTH
REF_FRAME      = TEME
TIME_SYSTEM    = UTC
MEAN_ELEMENT_THEORY = SGP/SGP4

EPOCH          = 2025-12-02T20:00:03.000384
MEAN_MOTION    = 15.66012825
ECCENTRICITY   = .0001237
INCLINATION    = 53.1591
RA_OF_ASC_NODE = 324.1506
ARG_OF_PERICENTER = 101.6544
MEAN_ANOMALY   = 169.5641

EPHEMERIS_TYPE = 0
CLASSIFICATION_TYPE = U
NORAD_CAT_ID   = 66359
ELEMENT_SET_NO = 999
REV_AT_EPOCH   = 530
BSTAR          = -.21916E-1
MEAN_MOTION_DOT = -.2008935E-1
MEAN_MOTION_DDOT = 0

CCSDS_OMM_VERS = 2.0
CREATION_DATE  = 
ORIGINATOR     = 

OBJECT_NAME    = STARLINK-35823
OBJECT_ID      = 2025-254N
CENTER_NAME    = EARTH
REF_FRAME      = TEME
TIME_SYSTEM    = UTC
MEAN_ELEMENT_THEORY = SGP/SGP4

EPOCH          = 2025-12-02T20:00:03.000384
MEAN_MOTION    = 15.66009400
ECCENTRICITY   = .0001207
INCLINATION    = 53.1590
RA_OF_ASC_NODE = 324.1417
ARG_OF_PERICENTER = 103.3797
MEAN_ANOMALY   = 171.6733

EPHEMERIS_TYPE = 0
CLASSIFICATION_TYPE = U
NORAD_CAT_ID   = 66360
ELEMENT_SET_NO = 999
REV_AT_EPOCH   = 533
BSTAR          = -.2185E-1
MEAN_MOTION_DOT = -.2003304E-1
MEAN_MOTION_DDOT = 0

CCSDS_OMM_VERS = 2.0
CREATION_DATE  = 
ORIGINATOR     = 

OBJECT_NAME    = STARLINK-35813
OBJECT_ID      = 2025-254P
CENTER_NAME    = EARTH
REF_FRAME      = TEME
TIME_SYSTEM    = UTC
MEAN_ELEMENT_THEORY = SGP/SGP4

EPOCH          = 2025-12-02T20:00:03.000384
MEAN_MOTION    = 15.66008469
ECCENTRICITY   = .0001198
INCLINATION    = 53.1593
RA_OF_ASC_NODE = 324.1467
ARG_OF_PERICENTER = 105.8504
MEAN_ANOMALY   = 167.2864

EPHEMERIS_TYPE = 0
CLASSIFICATION_TYPE = U
NORAD_CAT_ID   = 66361
ELEMENT_SET_NO = 999
REV_AT_EPOCH   = 533
BSTAR          = -.21837E-1
MEAN_MOTION_DOT = -.2002238E-1
MEAN_MOTION_DDOT = 0

CCSDS_OMM_VERS = 2.0
CREATION_DATE  = 
ORIGINATOR     = 

OBJECT_NAME    = STARLINK-35822
OBJECT_ID      = 2025-254Q
CENTER_NAME    = EARTH
REF_FRAME      = TEME
TIME_SYSTEM    = UTC
MEAN_ELEMENT_THEORY = SGP/SGP4

EPOCH          = 2025-12-02T20:00:03.000384
MEAN_MOTION    = 15.66012016
ECCENTRICITY   = .000117
INCLINATION    = 53.1592
RA_OF_ASC_NODE = 324.1347
ARG_OF_PERICENTER = 106.9207
MEAN_ANOMALY   = 171.9672

EPHEMERIS_TYPE = 0
CLASSIFICATION_TYPE = U
NORAD_CAT_ID   = 66362
ELEMENT_SET_NO = 999
REV_AT_EPOCH   = 533
BSTAR          = -.21918E-1
MEAN_MOTION_DOT = -.2008998E-1
MEAN_MOTION_DDOT = 0

