STARLINK-35828          
1 66351U 25254D   25336.83336806 -.02010427  00000+0 -21936-1 0  9994
2 66351  53.1594 324.1839 0001219 105.4464 150.4410 15.66011982  5309
STARLINK-35850          
1 66352U 25254E   25336.83336806 -.02014529  00000+0 -21983-1 0  9994
2 66352  53.1593 324.1795 0001257 105.6647 152.1366 15.66016062  5287
STARLINK-35869          
1 66353U 25254F   25336.83336806 -.02002766  00000+0 -21844-1 0  9991
2 66353  53.1591 324.1753 0001204 100.7063 159.0137 15.66008153  5330
STARLINK-35895          
1 66354U 25254G   25336.83336806 -.02875455  00000+0 -53394-1 0  9990
2 66354  53.1586 324.4476 0001804  94.6139  30.5137 15.52299062  5330
STARLINK-35861          
1 66355U 25254H   25336.83336806 -.02005562  00000+0 -21877-1 0  9996
2 66355  53.1593 324.1671 0001213 103.7686 159.7838 15.66010487  5335
STARLINK-35851          
1 66356U 25254J   25336.83336806 -.02009572  00000+0 -21924-1 0  9995
2 66356  53.1594 324.1625 0001221 103.8466 161.6224 15.66012853  5332
STARLINK-35817          
1 66357U 25254K   25336.83336806 -.02008044  00000+0 -21907-1 0  9990
2 66357  53.1594 324.1585 0001085 107.5689 159.8167 15.66012726  5338
STARLINK-35807          
1 66358U 25254L   25336.83336806 -.02015138  00000+0 -21989-1 0  9993
2 66358  53.1595 324.1542 0001134 111.8958 157.4037 15.66018388  5335
STARLINK-35805          
1 66359U 25254M   25336.83336806 -.02008935  00000+0 -21916-1 0  9991
2 66359  53.1591 324.1506 0001237 101.6544 169.5641 15.66012825  5306
STARLINK-35823          
1 66360U 25254N   25336.83336806 -.02003304  00000+0 -21850-1 0  9995
2 66360  53.1590 324.1417 0001207 103.3797 171.6733 15.66009400  5338
STARLINK-35813          
1 66361U 25254P   25336.83336806 -.02002238  00000+0 -21837-1 0  9996
2 66361  53.1593 324.1467 0001198 105.8504 167.2864 15.66008469  5339
STARLINK-35822          
1 66362U 25254Q   25336.83336806 -.02008998  00000+0 -21918-1 0  9996
2 66362  53.1592 324.1347 0001170 106.9207 171.9672 15.66012016  5330
